NORAD_CAT_ID,OBJECT_NAME,OBJECT_TYPE,EPOCH,MEAN_MOTION,ECCENTRICITY,INCLINATION,RA_OF_ASC_NODE,ARG_OF_PERICENTER,MEAN_ANOMALY,BSTAR,MEAN_MOTION_DOT,MEAN_MOTION_DDOT,TLE_LINE0,TLE_LINE1,TLE_LINE2,SEMIMAJOR_AXIS,PERIOD,APOGEE,PERIGEE,DECAYED
55744.0,STARLINK-5601,PAYLOAD,2024-05-13 22:34:39,14.98317514,0.0003488,69.9979,120.6682,271.5266,88.5493,-9.527e-05,-1.229e-05,0.0,0 STARLINK-5601,1 55744U 23028D   24134.94073319 -.00001229  00000-0 -95270-4 0  9993,2 55744  69.9979 120.6682 0003488 271.5266  88.5493 14.98317514 66465,6950.232,96.108,574.521,569.672,0.0
55744.0,STARLINK-5601,PAYLOAD,2024-05-14 09:47:35,14.98322633,0.0003232,69.9981,119.49,268.7799,91.299,2.8773e-05,2.5e-06,0.0,0 STARLINK-5601,1 55744U 23028D   24135.40805068  .00000250  00000-0  28773-4 0  9994,2 55744  69.9981 119.4900 0003232 268.7799  91.2990 14.98322633 66532,6950.216,96.107,574.327,569.834,0.0
55744.0,STARLINK-5601,PAYLOAD,2024-05-14 16:12:07,14.9832735,0.0003164,69.9986,118.8175,269.9411,90.1385,1.7219e-05,1.12e-06,0.0,0 STARLINK-5601,1 55744U 23028D   24135.67508983  .00000112  00000-0  17219-4 0  9999,2 55744  69.9986 118.8175 0003164 269.9411  90.1385 14.98327350 66573,6950.201,96.107,574.265,569.867,0.0
55744.0,STARLINK-5601,PAYLOAD,2024-05-15 08:13:28,14.98326936,0.0003171,69.9983,117.1338,269.2522,90.8273,0.00038292,4.479e-05,0.0,0 STARLINK-5601,1 55744U 23028D   24136.34269098  .00004479  00000-0  38292-3 0  9998,2 55744  69.9983 117.1338 0003171 269.2522  90.8273 14.98326936 66670,6950.202,96.107,574.271,569.863,0.0
55744.0,STARLINK-5601,PAYLOAD,2024-05-16 05:03:12,14.98352699,0.0003164,69.9996,114.9458,269.4924,90.5873,0.0005056,5.948e-05,0.0,0 STARLINK-5601,1 55744U 23028D   24137.21055925  .00005948  00000-0  50560-3 0  9991,2 55744  69.9996 114.9458 0003164 269.4924  90.5873 14.98352699 66805,6950.123,96.106,574.187,569.789,0.0
55744.0,STARLINK-5601,PAYLOAD,2024-05-16 08:15:28,14.98359399,0.0003125,69.9997,114.6094,269.3612,90.7189,0.00063498,7.497e-05,0.0,0 STARLINK-5601,1 55744U 23028D   24137.34407570  .00007497  00000-0  63498-3 0  9997,2 55744  69.9997 114.6094 0003125 269.3612  90.7189 14.98359399 66827,6950.102,96.105,574.139,569.795,0.0
55744.0,STARLINK-5601,PAYLOAD,2024-05-16 16:16:08,14.98353001,0.0002628,70.0019,113.7651,275.9158,84.1701,0.00030806,3.587e-05,0.0,0 STARLINK-5601,1 55744U 23028D   24137.67787476  .00003587  00000-0  30806-3 0  9992,2 55744  70.0019 113.7651 0002628 275.9158  84.1701 14.98353001 66875,6950.122,96.106,573.813,570.16,0.0
55744.0,STARLINK-5601,PAYLOAD,2024-05-17 05:05:12,14.98345311,0.0002969,70.0003,112.4217,270.6146,89.4672,5.6011e-05,5.76e-06,0.0,0 STARLINK-5601,1 55744U 23028D   24138.21195334  .00000576  00000-0  56011-4 0  9991,2 55744  70.0003 112.4217 0002969 270.6146  89.4672 14.98345311 66958,6950.146,96.106,574.074,569.947,0.0
55744.0,STARLINK-5601,PAYLOAD,2024-05-17 08:17:28,14.98343136,0.0002944,70.0005,112.0857,270.5845,89.4977,-1.1789e-05,-2.34e-06,0.0,0 STARLINK-5601,1 55744U 23028D   24138.34547228 -.00000234  00000-0 -11789-4 0  9994,2 55744  70.0005 112.0857 0002944 270.5845  89.4977 14.98343136 66977,6950.152,96.106,574.063,569.971,0.0
55744.0,STARLINK-5601,PAYLOAD,2024-05-17 22:42:40,14.98350744,0.0003051,69.9999,110.5696,271.4674,88.6136,3.6994e-05,3.49e-06,0.0,0 STARLINK-5601,1 55744U 23028D   24138.94630409  .00000349  00000-0  36994-4 0  9994,2 55744  69.9999 110.5696 0003051 271.4674  88.6136 14.98350744 67062,6950.129,96.106,574.114,569.873,0.0
55744.0,STARLINK-5601,PAYLOAD,2024-05-18 05:07:12,14.98363782,0.000288,70.0002,109.896,273.1308,86.9521,0.0004792,5.634e-05,0.0,0 STARLINK-5601,1 55744U 23028D   24139.21333536  .00005634  00000-0  47920-3 0  9998,2 55744  70.0002 109.8960 0002880 273.1308  86.9521 14.98363782 67107,6950.088,96.105,573.955,569.952,0.0
55744.0,STARLINK-5601,PAYLOAD,2024-05-18 14:44:00,14.98347853,0.0002814,70.0021,108.8846,283.1171,76.9674,0.00015292,1.733e-05,0.0,0 STARLINK-5601,1 55744U 23028D   24139.61389673  .00001733  00000-0  15292-3 0  9998,2 55744  70.0021 108.8846 0002814 283.1171  76.9674 14.98347853 67161,6950.138,96.106,573.958,570.047,0.0
55744.0,STARLINK-5601,PAYLOAD,2024-05-18 21:08:33,14.98340223,0.0001492,70.0005,108.2125,302.3617,57.7397,9.5382e-05,1.046e-05,0.0,0 STARLINK-5601,1 55744U 23028D   24139.88094398  .00001046  00000-0  95382-4 0  9990,2 55744  70.0005 108.2125 0001492 302.3617  57.7397 14.98340223 67205,6950.161,96.106,573.063,570.989,0.0
55744.0,STARLINK-5601,PAYLOAD,2024-05-18 22:44:41,14.98308064,0.0003092,70.0004,108.044,275.1247,84.9559,-0.00121,-0.00014493,0.0,0 STARLINK-5601,1 55744U 23028D   24139.94770711 -.00014493  00000-0 -12100-2 0  9994,2 55744  70.0004 108.0440 0003092 275.1247  84.9559 14.98308064 67216,6950.261,96.108,574.275,569.977,0.0
55744.0,STARLINK-5601,PAYLOAD,2024-05-19 01:56:58,14.98303166,0.000323,70.0002,107.7073,275.1472,84.9318,-0.0013407,-0.00016043,0.0,0 STARLINK-5601,1 55744U 23028D   24140.08122713 -.00016043  00000-0 -13407-2 0  9998,2 55744  70.0002 107.7073 0003230 275.1472  84.9318 14.98303166 67239,6950.276,96.109,574.386,569.896,0.0
55744.0,STARLINK-5601,PAYLOAD,2024-05-19 06:45:22,14.98300312,0.0003144,70.0003,107.2029,272.7137,87.3663,-0.00070177,-8.45e-05,0.0,0 STARLINK-5601,1 55744U 23028D   24140.28151264 -.00008450  00000-0 -70177-3 0  9994,2 55744  70.0003 107.2029 0003144 272.7137  87.3663 14.98300312 67264,6950.285,96.109,574.335,569.965,0.0
55744.0,STARLINK-5601,PAYLOAD,2024-05-20 03:35:09,14.98319477,0.000338,69.9999,105.0139,274.3551,85.7221,0.0015508,0.00018455,0.0,0 STARLINK-5601,1 55744U 23028D   24141.14941064  .00018455  00000-0  15508-2 0  9995,2 55744  69.9999 105.0139 0003380 274.3551  85.7221 14.98319477 67391,6950.225,96.108,574.44,569.741,0.0
55744.0,STARLINK-5601,PAYLOAD,2024-05-20 06:47:25,14.98324985,0.0003369,70.0,104.6771,273.8742,86.2032,0.0015564,0.00018525,0.0,0 STARLINK-5601,1 55744U 23028D   24141.28293118  .00018525  00000-0  15564-2 0  9990,2 55744  70.0000 104.6771 0003369 273.8742  86.2032 14.98324985 67416,6950.208,96.107,574.415,569.732,0.0
55744.0,STARLINK-5601,PAYLOAD,2024-05-21 03:37:09,14.98354761,0.0003349,70.0002,102.4894,270.8408,89.2368,0.0014127,0.00016815,0.0,0 STARLINK-5601,1 55744U 23028D   24142.15080473  .00016815  00000-0  14127-2 0  9999,2 55744  70.0002 102.4894 0003349 270.8408  89.2368 14.98354761 67548,6950.116,96.105,574.309,569.654,0.0
55744.0,STARLINK-5601,PAYLOAD,2024-05-21 06:49:25,14.9836008,0.0003356,70.0002,102.1527,270.7666,89.3108,0.0014312,0.00017039,0.0,0 STARLINK-5601,1 55744U 23028D   24142.28432208  .00017039  00000-0  14312-2 0  9995,2 55744  70.0002 102.1527 0003356 270.7666  89.3108 14.98360080 67567,6950.1,96.105,574.297,569.632,0.0
55744.0,STARLINK-5601,PAYLOAD,2024-05-21 21:14:37,14.98351049,0.0002242,70.0027,100.6363,274.8931,85.1972,0.00048254,5.672e-05,0.0,0 STARLINK-5601,1 55744U 23028D   24142.88516004  .00005672  00000-0  48254-3 0  9991,2 55744  70.0027 100.6363 0002242 274.8931  85.1972 14.98351049 67656,6950.128,96.106,573.551,570.435,0.0
55744.0,STARLINK-5601,PAYLOAD,2024-05-21 22:50:45,14.98346447,0.0002786,70.0015,100.4706,260.4712,99.6133,0.00027942,3.244e-05,0.0,0 STARLINK-5601,1 55744U 23028D   24142.95191904  .00003244  00000-0  27942-3 0  9991,2 55744  70.0015 100.4706 0002786 260.4712  99.6133 14.98346447 67669,6950.142,96.106,573.943,570.071,0.0
55744.0,STARLINK-5601,PAYLOAD,2024-05-22 03:39:09,14.98341813,0.000289,70.0011,99.9656,260.6471,99.4361,0.00017766,2.028e-05,0.0,0 STARLINK-5601,1 55744U 23028D   24143.15219845  .00002028  00000-0  17766-3 0  9991,2 55744  70.0011  99.9656 0002890 260.6471  99.4361 14.98341813 67697,6950.156,96.106,574.03,570.013,0.0
55744.0,STARLINK-5601,PAYLOAD,2024-05-22 06:51:26,14.98339713,0.0002938,70.0011,99.6286,265.8055,94.2769,0.00017739,2.025e-05,0.0,0 STARLINK-5601,1 55744U 23028D   24143.28571905  .00002025  00000-0  17739-3 0  9990,2 55744  70.0011  99.6286 0002938 265.8055  94.2769 14.98339713 67715,6950.163,96.106,574.07,569.986,0.0
55744.0,STARLINK-5601,PAYLOAD,2024-05-22 21:16:38,14.98336484,0.0003061,70.0006,98.1137,270.3419,89.7389,-5.6821e-05,-7.71e-06,0.0,0 STARLINK-5601,1 55744U 23028D   24143.88655873 -.00000771  00000-0 -56821-4 0  9997,2 55744  70.0006  98.1137 0003061 270.3419  89.7389 14.98336484 67800,6950.173,96.107,574.165,569.91,0.0
55744.0,STARLINK-5601,PAYLOAD,2024-05-23 06:53:26,14.98349715,0.0002604,70.0001,97.1043,265.9989,94.0873,-0.00028067,-3.442e-05,0.0,0 STARLINK-5601,1 55744U 23028D   24144.28711516 -.00003442  00000-0 -28067-3 0  9997,2 55744  70.0001  97.1043 0002604 265.9989  94.0873 14.98349715 67868,6950.132,96.106,573.807,570.187,0.0
55744.0,STARLINK-5601,PAYLOAD,2024-05-23 21:18:39,14.98351868,0.0002619,70.0001,95.5906,267.0811,93.0048,-0.00020468,-2.536e-05,0.0,0 STARLINK-5601,1 55744U 23028D   24144.88795338 -.00002536  00000-0 -20468-3 0  9997,2 55744  70.0001  95.5906 0002619 267.0811  93.0048 14.98351868 67956,6950.125,96.106,573.811,570.17,0.0
55744.0,STARLINK-5601,PAYLOAD,2024-05-24 03:43:11,14.98338388,0.00028,69.9999,94.9163,263.7669,96.3171,0.00013785,1.553e-05,0.0,0 STARLINK-5601,1 55744U 23028D   24145.15499220  .00001553  00000-0  13785-3 0  9999,2 55744  69.9999  94.9163 0002800 263.7669  96.3171 14.98338388 67992,6950.167,96.106,573.978,570.086,0.0
55744.0,STARLINK-5601,PAYLOAD,2024-05-24 06:55:27,14.98340915,0.000268,70.0002,94.5799,257.0518,103.0342,0.00015313,1.735e-05,0.0,0 STARLINK-5601,1 55744U 23028D   24145.28850947  .00001735  00000-0  15313-3 0  9991,2 55744  70.0002  94.5799 0002680 257.0518 103.0342 14.98340915 68015,6950.159,96.106,573.887,570.161,0.0
55744.0,STARLINK-5601,PAYLOAD,2024-05-24 21:20:41,14.98309784,0.0003108,70.0012,93.0602,264.1885,95.8919,-1.1267e-05,-2.27e-06,0.0,0 STARLINK-5601,1 55744U 23028D   24145.88937186 -.00000227  00000-0 -11267-4 0  9990,2 55744  70.0012  93.0602 0003108 264.1885  95.8919 14.98309784 68102,6950.255,96.108,574.281,569.96,0.0
